     3.02           N: GNSS NAV DATA    J: QZSS             RINEX VERSION / TYPE                                                
Версия от 220825                        20231231 01:19:17UTCPGM / RUN BY / DATE                                                 
QZUT  0.1024454832D-07 0.000000000D+00 442368 2294          TIME SYSTEM CORR
                                                            END OF HEADER                                                       
J02 2023 12 28 00 00 00-0.800006091595D-06-0.227373675443D-12 0.000000000000D+00
     0.157000000000D+03-0.161187500000D+03 0.128791078951D-08 0.124986055396D+01
    -0.438094139099D-05 0.752453163732D-01 0.164490193129D-04 0.649323606873D+04
     0.345600000000D+06 0.125728547573D-05 0.286356177960D+01-0.103563070297D-05
     0.713387482401D+00-0.312468750000D+03-0.157912519341D+01-0.137612874986D-08
    -0.930395897581D-09 0.200000000000D+01 0.229400000000D+04 0.100000000000D+01
     0.280000000000D+01 0.100000000000D+01 0.186264514923D-08 0.925000000000D+03
     0.342018000000D+06
J03 2023 12 28 00 00 00-0.138217583299D-04-0.170530256582D-11 0.000000000000D+00
     0.157000000000D+03 0.185000000000D+03 0.249188951149D-08-0.621853309681D+00
     0.810623168945D-05 0.754106495297D-01-0.166967511177D-04 0.649388730240D+04
     0.345600000000D+06-0.150129199028D-05-0.169689999982D+01 0.949949026108D-06
     0.708132979095D+00 0.651062500000D+03-0.153759342312D+01-0.248903224961D-08
    -0.364658046614D-09 0.200000000000D+01 0.229400000000D+04 0.100000000000D+01
     0.280000000000D+01 0.100000000000D+01 0.931322574616D-09 0.925000000000D+03
     0.342018000000D+06
J04 2023 12 28 00 00 00 0.752415508032D-04 0.102318153950D-11 0.000000000000D+00
     0.157000000000D+03-0.583031250000D+03 0.590381734626D-09-0.235827344893D+01
    -0.196322798729D-04 0.751559665659D-01 0.261068344116D-04 0.649380921745D+04
     0.345600000000D+06-0.232085585594D-05 0.167728604855D-01-0.151433050632D-05
     0.621879611485D+00-0.745156250000D+03-0.154837776993D+01-0.147506144223D-09
     0.133827003003D-08 0.200000000000D+01 0.229400000000D+04 0.100000000000D+01
     0.280000000000D+01 0.100000000000D+01-0.279396772385D-08 0.925000000000D+03
     0.342018000000D+06
J07 2023 12 28 00 00 00-0.302679836750D-07 0.000000000000D+00 0.000000000000D+00
     0.157000000000D+03 0.368718750000D+03 0.000000000000D+00-0.111734042862D+01
     0.119674950838D-04 0.193342566490D-03 0.198818743229D-04 0.649342527199D+04
     0.345600000000D+06-0.648200511932D-06 0.429108488217D+00-0.333786010742D-05
     0.111492058949D-02-0.603031250000D+03 0.297467936955D+01 0.128255342350D-08
     0.000000000000D+00 0.200000000000D+01 0.229400000000D+04 0.100000000000D+01
     0.280000000000D+01 0.100000000000D+01-0.419095158577D-08 0.925000000000D+03
     0.342018000000D+06
